OBJECT_NAME,OBJECT_ID,EPOCH,MEAN_MOTION,ECCENTRICITY,INCLINATION,RA_OF_ASC_NODE,ARG_OF_PERICENTER,MEAN_ANOMALY,EPHEMERIS_TYPE,CLASSIFICATION_TYPE,NORAD_CAT_ID,ELEMENT_SET_NO,REV_AT_EPOCH,BSTAR,MEAN_MOTION_DOT,MEAN_MOTION_DDOT
STARLINK-5783,2023-042AN,2025-07-28T14:51:26.758080,15.02535496,.0001162,43.0027,180.6931,285.5954,74.4760,0,U,56022,999,12935,-.62168E-5,-.288E-5,0
STARLINK-5771,2023-042AP,2025-07-28T14:59:26.315232,15.02534539,.0001106,43.0026,180.7371,276.6880,83.3836,0,U,56023,999,12969,.34493E-4,.262E-5,0
STARLINK-5772,2023-042AQ,2025-07-28T14:37:03.838080,15.02533611,.0001125,43.0021,180.6194,275.8276,84.2438,0,U,56024,999,12935,.48078E-4,.446E-5,0
STARLINK-5766,2023-042AR,2025-07-29T04:25:13.036224,15.02536102,.0001074,43.0020,178.0477,277.4182,82.6539,0,U,56025,999,12977,.29715E-4,.198E-5,0
STARLINK-5770,2023-042AS,2025-07-28T14:49:50.900736,15.02540900,.0001344,43.0025,180.6830,287.6321,72.4374,0,U,56026,999,12935,-.40533E-4,-.751E-5,0
STARLINK-5777,2023-042AT,2025-07-28T06:56:00.177216,15.02533279,.000121,43.0026,182.5182,271.2841,88.7863,0,U,56027,999,12930,.15058E-4,0,0
STARLINK-5779,2023-042AU,2025-07-28T14:30:39.883392,15.02537680,.0001116,43.0019,180.5809,283.6268,76.4450,0,U,56028,999,12969,.33255E-4,.246E-5,0
STARLINK-5774,2023-042AV,2025-07-28T05:10:41.359008,15.02544383,.0001187,43.0028,182.8253,287.4516,72.6196,0,U,56029,999,12929,.14929E-4,-.2E-7,0
STARLINK-5781,2023-042AW,2025-07-29T04:47:25.596384,15.02534323,.0001205,43.0031,177.3096,282.9954,77.0754,0,U,56030,999,12978,.27153E-4,.163E-5,0
STARLINK-5785,2023-042AX,2025-07-28T14:35:27.585024,15.02537847,.0001166,43.0023,180.6113,284.5324,75.5389,0,U,56031,999,12935,.34997E-4,.269E-5,0
STARLINK-5786,2023-042AY,2025-07-29T04:34:38.357472,15.02535554,.0001204,43.0031,177.2413,296.8857,63.1862,0,U,56032,999,12978,.25236E-4,.137E-5,0
STARLINK-5782,2023-042BA,2025-07-29T04:33:02.644416,15.02533809,.0001162,43.0025,177.2340,266.5113,93.5596,0,U,56034,999,12978,.48833E-5,-.138E-5,0
STARLINK-5792,2023-042BB,2025-07-28T09:35:29.360832,15.02537757,.0001123,43.0027,181.6263,271.9863,88.0851,0,U,56035,999,12932,.20949E-4,.79E-6,0
STARLINK-5790,2023-042BC,2025-07-28T09:29:05.949600,15.02536541,.0001029,43.0018,181.5914,278.3642,81.7083,0,U,56036,999,12932,.42088E-4,.365E-5,0
STARLINK-5758,2023-042BD,2025-07-29T00:21:22.957920,15.02532957,.0001092,43.0029,165.4447,274.6338,85.4380,0,U,56037,999,12990,.77514E-5,-.99E-6,0
STARLINK-5793,2023-042BE,2025-07-29T04:29:50.588448,15.02537536,.0001093,43.0024,177.2153,278.4003,81.6715,0,U,56038,999,12978,.21874E-4,.92E-6,0
STARLINK-5795,2023-042BF,2025-07-29T03:26:28.164192,15.02527306,.0001174,43.0032,164.6868,269.0262,91.0446,0,U,56039,999,12992,.14978E-3,.182E-4,0
STARLINK-5798,2023-042BG,2025-07-28T14:37:25.273056,15.02534680,.0001095,43.0029,167.5552,276.0149,84.0569,0,U,56040,999,12950,-.20079E-4,-.475E-5,0
STARLINK-5800,2023-042BH,2025-07-29T04:55:46.533216,15.02536291,.0001092,43.0027,164.2892,278.1244,81.9474,0,U,56041,999,12993,.44114E-4,.392E-5,0
STARLINK-6109,2023-046B,2025-07-28T06:57:15.371136,15.02534854,.0001276,43.0030,298.5156,275.1270,84.9427,0,U,56094,999,12830,.62393E-5,-.119E-5,0
STARLINK-6090,2023-046C,2025-07-28T13:29:45.805344,15.02534278,.0001464,43.0048,297.1218,266.3130,93.7545,0,U,56095,999,12834,.31751E-5,-.161E-5,0
STARLINK-6089,2023-046D,2025-07-28T13:16:58.765152,15.02529299,.0001385,43.0041,297.0561,270.4411,89.6273,0,U,56096,999,12888,.38725E-4,.319E-5,0
STARLINK-6077,2023-046E,2025-07-28T13:16:51.005568,15.02544009,.0001313,43.0026,244.9997,275.3428,84.7265,0,U,56097,999,12894,-.40157E-5,-.258E-5,0
STARLINK-6088,2023-046F,2025-07-28T13:24:58.028544,15.02535400,.0001346,43.0043,297.0964,271.1935,88.8753,0,U,56098,999,12834,.19311E-4,.57E-6,0
STARLINK-6076,2023-046H,2025-07-28T06:39:40.793472,15.02537830,.0001661,43.0038,298.4244,270.6898,89.3754,0,U,56100,999,12830,.51002E-4,.485E-5,0
STARLINK-6095,2023-046J,2025-07-29T04:58:16.280832,15.02535993,.0000816,43.0048,293.3594,265.9150,94.1599,0,U,56101,999,12898,.28813E-4,.186E-5,0
STARLINK-6075,2023-046K,2025-07-28T12:52:59.926944,15.02518076,.0002698,43.0093,296.9347,290.7563,69.2990,0,U,56102,999,12888,.30775E-3,.3954E-4,0
STARLINK-6096,2023-046L,2025-07-28T17:43:22.907712,15.02538714,.0001308,43.0040,295.8598,280.3984,79.6711,0,U,56103,999,12891,-.31812E-5,-.247E-5,0
STARLINK-6062,2023-046M,2025-07-28T22:32:09.821184,15.02534332,.0001467,43.0037,294.7846,268.8959,91.1715,0,U,56104,999,12894,-.47086E-5,-.267E-5,0
STARLINK-6066,2023-046N,2025-07-28T22:12:59.670432,15.02530371,.0001401,43.0056,294.6858,276.3494,83.7189,0,U,56105,999,12894,-.28333E-4,-.586E-5,0
