STARLINK-5783           
1 56022U 23042AN  25209.61905970 -.00000288  00000+0 -62168-5 0  9998
2 56022  43.0027 180.6931 0001162 285.5954  74.4760 15.02535496129357
STARLINK-5771           
1 56023U 23042AP  25209.62461013  .00000262  00000+0  34493-4 0  9994
2 56023  43.0026 180.7371 0001106 276.6880  83.3836 15.02534539129690
STARLINK-5772           
1 56024U 23042AQ  25209.60907220  .00000446  00000+0  48078-4 0  9996
2 56024  43.0021 180.6194 0001125 275.8276  84.2438 15.02533611129350
STARLINK-5766           
1 56025U 23042AR  25210.18417866  .00000198  00000+0  29715-4 0  9995
2 56025  43.0020 178.0477 0001074 277.4182  82.6539 15.02536102129770
STARLINK-5770           
1 56026U 23042AS  25209.61795024 -.00000751  00000+0 -40533-4 0  9995
2 56026  43.0025 180.6830 0001344 287.6321  72.4374 15.02540900129355
STARLINK-5777           
1 56027U 23042AT  25209.28889094  .00000000  00000+0  15058-4 0  9999
2 56027  43.0026 182.5182 0001210 271.2841  88.7863 15.02533279129305
STARLINK-5779           
1 56028U 23042AU  25209.60462828  .00000246  00000+0  33255-4 0  9999
2 56028  43.0019 180.5809 0001116 283.6268  76.4450 15.02537680129695
STARLINK-5774           
1 56029U 23042AV  25209.21575647 -.00000002  00000+0  14929-4 0  9999
2 56029  43.0028 182.8253 0001187 287.4516  72.6196 15.02544383129299
STARLINK-5781           
1 56030U 23042AW  25210.19960181  .00000163  00000+0  27153-4 0  9991
2 56030  43.0031 177.3096 0001205 282.9954  77.0754 15.02534323129782
STARLINK-5785           
1 56031U 23042AX  25209.60795816  .00000269  00000+0  34997-4 0  9998
2 56031  43.0023 180.6113 0001166 284.5324  75.5389 15.02537847129350
STARLINK-5786           
1 56032U 23042AY  25210.19072173  .00000137  00000+0  25236-4 0  9999
2 56032  43.0031 177.2413 0001204 296.8857  63.1862 15.02535554129784
STARLINK-5782           
1 56034U 23042BA  25210.18961394 -.00000138  00000+0  48833-5 0  9993
2 56034  43.0025 177.2340 0001162 266.5113  93.5596 15.02533809129782
STARLINK-5792           
1 56035U 23042BB  25209.39964538  .00000079  00000+0  20949-4 0  9998
2 56035  43.0027 181.6263 0001123 271.9863  88.0851 15.02537757129326
STARLINK-5790           
1 56036U 23042BC  25209.39520775  .00000365  00000+0  42088-4 0  9996
2 56036  43.0018 181.5914 0001029 278.3642  81.7083 15.02536541129327
STARLINK-5758           
1 56037U 23042BD  25210.01484905 -.00000099  00000+0  77514-5 0  9990
2 56037  43.0029 165.4447 0001092 274.6338  85.4380 15.02532957129905
STARLINK-5793           
1 56038U 23042BE  25210.18739107  .00000092  00000+0  21874-4 0  9995
2 56038  43.0024 177.2153 0001093 278.4003  81.6715 15.02537536129782
STARLINK-5795           
1 56039U 23042BF  25210.14338153  .00001820  00000+0  14978-3 0  9994
2 56039  43.0032 164.6868 0001174 269.0262  91.0446 15.02527306129924
STARLINK-5798           
1 56040U 23042BG  25209.60932029 -.00000475  00000+0 -20079-4 0  9994
2 56040  43.0029 167.5552 0001095 276.0149  84.0569 15.02534680129503
STARLINK-5800           
1 56041U 23042BH  25210.20539969  .00000392  00000+0  44114-4 0  9991
2 56041  43.0027 164.2892 0001092 278.1244  81.9474 15.02536291129937
STARLINK-6109           
1 56094U 23046B   25209.28976124 -.00000119  00000+0  62393-5 0  9995
2 56094  43.0030 298.5156 0001276 275.1270  84.9427 15.02534854128307
STARLINK-6090           
1 56095U 23046C   25209.56233571 -.00000161  00000+0  31751-5 0  9990
2 56095  43.0048 297.1218 0001464 266.3130  93.7545 15.02534278128340
STARLINK-6089           
1 56096U 23046D   25209.55345793  .00000319  00000+0  38725-4 0  9991
2 56096  43.0041 297.0561 0001385 270.4411  89.6273 15.02529299128882
STARLINK-6077           
1 56097U 23046E   25209.55336812 -.00000258  00000+0 -40157-5 0  9991
2 56097  43.0026 244.9997 0001313 275.3428  84.7265 15.02544009128943
STARLINK-6088           
1 56098U 23046F   25209.55900496  .00000057  00000+0  19311-4 0  9999
2 56098  43.0043 297.0964 0001346 271.1935  88.8753 15.02535400128345
STARLINK-6076           
1 56100U 23046H   25209.27755548  .00000485  00000+0  51002-4 0  9996
2 56100  43.0038 298.4244 0001661 270.6898  89.3754 15.02537830128303
STARLINK-6095           
1 56101U 23046J   25210.20713288  .00000186  00000+0  28813-4 0  9999
2 56101  43.0048 293.3594 0000816 265.9150  94.1599 15.02535993128989
STARLINK-6075           
1 56102U 23046K   25209.53680471  .00003954  00000+0  30775-3 0  9996
2 56102  43.0093 296.9347 0002698 290.7563  69.2990 15.02518076128889
STARLINK-6096           
1 56103U 23046L   25209.73845958 -.00000247  00000+0 -31812-5 0  9991
2 56103  43.0040 295.8598 0001308 280.3984  79.6711 15.02538714128918
STARLINK-6062           
1 56104U 23046M   25209.93900256 -.00000267  00000+0 -47086-5 0  9999
2 56104  43.0037 294.7846 0001467 268.8959  91.1715 15.02534332128946
STARLINK-6066           
1 56105U 23046N   25209.92569063 -.00000586  00000+0 -28333-4 0  9993
2 56105  43.0056 294.6858 0001401 276.3494  83.7189 15.02530371128947
